CALSPHERE 1             
1 00900U 64063C   22220.90575267  .00000423  00000+0  44123-3 0  9992
2 00900  90.1737  41.8657 0025631 220.7909 235.3158 13.73858894877864
CALSPHERE 2             
1 00902U 64063E   22220.73996678  .00000054  00000+0  68234-4 0  9998
2 00902  90.1863  44.9786 0018378   2.5148  10.3669 13.52719826665843
LCS 1                   
1 01361U 65034C   22221.43427165  .00000030  00000+0  28808-2 0  9990
2 01361  32.1402 279.5100 0012738  64.5918 295.5897  9.89301802 70814
TEMPSAT 1               
1 01512U 65065E   22220.47805144  .00000040  00000+0  62426-4 0  9999
2 01512  89.9123 218.2247 0068166 243.7706 243.2513 13.33452969772309
CALSPHERE 4A            
1 01520U 65065H   22220.69996413  .00000090  00000+0  15486-3 0  9990
2 01520  89.9930 130.1359 0070910 115.0053 278.5043 13.35897739774633
OPS 5712 (P/L 160)      
1 02826U 67053A   22220.93648234  .00001770  00000+0  46453-3 0  9995
2 02826  69.9274 165.9566 0008391 278.0303  81.9878 14.50802366860346
OPS 5712 (P/L 153)      
1 02874U 67053H   22220.78759092  .00000017  00000+0  50938-4 0  9993
2 02874  69.9717 253.0467 0009482 237.2904 122.7288 13.96412240810134
SURCAL 150B             
1 02909U 67053J   22221.19740144  .00003690  00000+0  70990-3 0  9995
2 02909  69.9471 152.1888 0005932 294.7040  65.3483 14.64385418871836
RIGIDSPHERE 2 (LCS 4)   
1 05398U 71067E   22221.15547562  .00000453  00000+0  15179-3 0  9997
2 05398  87.6254   8.4449 0062083 209.7029 150.0639 14.34281224672040
COSMOS 2493 (SKRL-756 1)
1 39490U 13078A   22221.52126760  .00001142  00000+0  11713-3 0  9995
2 39490  82.4193 183.3264 0015356 282.6111  77.3389 14.89541396467927
COSMOS 2494 (SKRL-756 2)
1 39491U 13078B   22221.51165832  .00001194  00000+0  11793-3 0  9993
2 39491  82.4196 177.0017 0019831 255.7694 104.1323 14.90999495468248
